{
 "type": "FeatureCollection",
 "features": [
  {
   "type": "Feature",
   "geometry": {
    "type": "Polygon",
    "coordinates": [
     [
      [
       11.091829,
       46.11335
      ],
      [
       11.092733,
       46.113708
      ],
      [
       11.094149,
       46.111993
      ],
      [
       11.093481,
       46.111766
      ],
      [
       11.093239,
       46.112021
      ],
      [
       11.092868,
       46.112004
      ],
      [
       11.091829,
       46.11335
      ]
     ]
    ]
   },
   "properties": {
    "name": "Area sosta mezzi pesanti Trento Nord",
    "osm_id": 1411775466,
    "kind": "surface",
    "fee": "yes",
    "capacity": 123
   }
  },
  {
   "type": "Feature",
   "geometry": {
    "type": "Polygon",
    "coordinates": [
     [
      [
       11.112447,
       46.06822
      ],
      [
       11.113259,
       46.068621
      ],
      [
       11.113292,
       46.068647
      ],
      [
       11.113318,
       46.068683
      ],
      [
       11.113337,
       46.068716
      ],
      [
       11.113352,
       46.06875
      ],
      [
       11.113354,
       46.068771
      ],
      [
       11.113353,
       46.068776
      ],
      [
       11.113351,
       46.068794
      ],
      [
       11.113327,
       46.068843
      ],
      [
       11.11332,
       46.068857
      ],
      [
       11.113307,
       46.068894
      ],
      [
       11.1133,
       46.068911
      ],
      [
       11.113295,
       46.068922
      ],
      [
       11.113293,
       46.068931
      ],
      [
       11.113273,
       46.068977
      ],
      [
       11.113191,
       46.069027
      ],
      [
       11.113144,
       46.069003
      ],
      [
       11.112978,
       46.069111
      ],
      [
       11.113006,
       46.069136
      ],
      [
       11.113038,
       46.069163
      ],
      [
       11.113273,
       46.06935
      ],
      [
       11.11345,
       46.069277
      ],
      [
       11.113523,
       46.06927
      ],
      [
       11.113674,
       46.069633
      ],
      [
       11.113419,
       46.06968
      ],
      [
       11.113174,
       46.069574
      ],
      [
       11.112509,
       46.069278
      ],
      [
       11.112483,
       46.069269
      ],
      [
       11.1124,
       46.069341
      ],
      [
       11.112326,
       46.069413
      ],
      [
       11.112323,
       46.069417
      ],
      [
       11.112307,
       46.069444
      ],
      [
       11.112276,
       46.069499
      ],
      [
       11.112227,
       46.06959
      ],
      [
       11.112122,
       46.0696
      ],
      [
       11.111272,
       46.069186
      ],
      [
       11.111998,
       46.068483
      ],
      [
       11.112143,
       46.068545
      ],
      [
       11.112186,
       46.068498
      ],
      [
       11.112363,
       46.068306
      ],
      [
       11.1124,
       46.068269
      ],
      [
       11.112447,
       46.06822
      ]
     ]
    ]
   },
   "properties": {
    "name": "Ex Italcementi",
    "osm_id": 902569772,
    "kind": "surface",
    "fee": "no",
    "capacity": 584
   }
  },
  {
   "type": "Feature",
   "geometry": {
    "type": "Polygon",
    "coordinates": [
     [
      [
       11.111701,
       46.067779
      ],
      [
       11.111693,
       46.067764
      ],
      [
       11.111774,
       46.067689
      ],
      [
       11.11203,
       46.067584
      ],
      [
       11.112143,
       46.067539
      ],
      [
       11.112481,
       46.067902
      ],
      [
       11.112579,
       46.068024
      ],
      [
       11.112616,
       46.06807
      ],
      [
       11.112516,
       46.068184
      ],
      [
       11.111701,
       46.067779
      ]
     ]
    ]
   },
   "properties": {
    "name": "Motorizzazione Civile",
    "osm_id": 914453312,
    "kind": "surface",
    "fee": "no",
    "capacity": 89
   }
  },
  {
   "type": "Feature",
   "geometry": {
    "type": "Polygon",
    "coordinates": [
     [
      [
       11.124275,
       46.074275
      ],
      [
       11.124275,
       46.074291
      ],
      [
       11.124279,
       46.074307
      ],
      [
       11.124288,
       46.074323
      ],
      [
       11.1243,
       46.074333
      ],
      [
       11.124315,
       46.074343
      ],
      [
       11.124334,
       46.07435
      ],
      [
       11.124356,
       46.074356
      ],
      [
       11.124385,
       46.074356
      ],
      [
       11.124412,
       46.074354
      ],
      [
       11.124436,
       46.074347
      ],
      [
       11.124457,
       46.074338
      ],
      [
       11.124471,
       46.074327
      ],
      [
       11.124481,
       46.074313
      ],
      [
       11.124492,
       46.074292
      ],
      [
       11.124501,
       46.074216
      ],
      [
       11.124516,
       46.074123
      ],
      [
       11.12453,
       46.074018
      ],
      [
       11.124545,
       46.073872
      ],
      [
       11.124544,
       46.073634
      ],
      [
       11.124544,
       46.073579
      ],
      [
       11.124542,
       46.073541
      ],
      [
       11.12453,
       46.073428
      ],
      [
       11.124515,
       46.073374
      ],
      [
       11.12448,
       46.073235
      ],
      [
       11.124445,
       46.073116
      ],
      [
       11.124394,
       46.073002
      ],
      [
       11.124328,
       46.072851
      ],
      [
       11.124281,
       46.072757
      ],
      [
       11.124238,
       46.072675
      ],
      [
       11.12422,
       46.072656
      ],
      [
       11.1242,
       46.07264
      ],
      [
       11.124172,
       46.072633
      ],
      [
       11.124144,
       46.072628
      ],
      [
       11.124113,
       46.072629
      ],
      [
       11.124082,
       46.072637
      ],
      [
       11.124054,
       46.072652
      ],
      [
       11.124039,
       46.072671
      ],
      [
       11.124034,
       46.072685
      ],
      [
       11.124038,
       46.072709
      ],
      [
       11.124111,
       46.072869
      ],
      [
       11.124185,
       46.07303
      ],
      [
       11.124237,
       46.073152
      ],
      [
       11.124272,
       46.073273
      ],
      [
       11.124308,
       46.073399
      ],
      [
       11.124319,
       46.073441
      ],
      [
       11.124327,
       46.073482
      ],
      [
       11.124358,
       46.073481
      ],
      [
       11.12436,
       46.073504
      ],
      [
       11.12433,
       46.073508
      ],
      [
       11.124338,
       46.073577
      ],
      [
       11.12434,
       46.073727
      ],
      [
       11.124338,
       46.073887
      ],
      [
       11.12433,
       46.073956
      ],
      [
       11.124304,
       46.074108
      ],
      [
       11.124275,
       46.074275
      ]
     ]
    ]
   },
   "properties": {
    "name": "P3 - Garage Autosilo Buonconsiglio",
    "osm_id": 24860487,
    "kind": "multi-storey",
    "fee": "yes",
    "capacity": 488
   }
  },
  {
   "type": "Feature",
   "geometry": {
    "type": "Polygon",
    "coordinates": [
     [
      [
       11.123511,
       46.064996
      ],
      [
       11.124423,
       46.064955
      ],
      [
       11.124467,
       46.064955
      ],
      [
       11.124513,
       46.064954
      ],
      [
       11.12466,
       46.064952
      ],
      [
       11.124757,
       46.065298
      ],
      [
       11.124706,
       46.065313
      ],
      [
       11.124645,
       46.065331
      ],
      [
       11.124611,
       46.065294
      ],
      [
       11.123663,
       46.065241
      ],
      [
       11.123659,
       46.065282
      ],
      [
       11.123656,
       46.065311
      ],
      [
       11.123634,
       46.06531
      ],
      [
       11.12361,
       46.065309
      ],
      [
       11.123562,
       46.065307
      ],
      [
       11.123563,
       46.065298
      ],
      [
       11.123565,
       46.065269
      ],
      [
       11.123565,
       46.065261
      ],
      [
       11.123573,
       46.065168
      ],
      [
       11.123496,
       46.065156
      ],
      [
       11.123441,
       46.065142
      ],
      [
       11.123403,
       46.065111
      ],
      [
       11.123392,
       46.065071
      ],
      [
       11.12341,
       46.065033
      ],
      [
       11.123454,
       46.065005
      ],
      [
       11.123511,
       46.064996
      ]
     ]
    ]
   },
   "properties": {
    "name": "P4 - Garage Piazza di Fiera",
    "osm_id": 460782720,
    "kind": "underground",
    "fee": "yes",
    "capacity": 460
   }
  },
  {
   "type": "Feature",
   "geometry": {
    "type": "Polygon",
    "coordinates": [
     [
      [
       11.115462,
       46.066405
      ],
      [
       11.115432,
       46.066402
      ],
      [
       11.11533,
       46.066392
      ],
      [
       11.115304,
       46.066389
      ],
      [
       11.115273,
       46.066533
      ],
      [
       11.1149,
       46.066496
      ],
      [
       11.114883,
       46.06651
      ],
      [
       11.114861,
       46.066527
      ],
      [
       11.114845,
       46.066541
      ],
      [
       11.114835,
       46.066551
      ],
      [
       11.114961,
       46.066796
      ],
      [
       11.11502,
       46.06692
      ],
      [
       11.115413,
       46.067663
      ],
      [
       11.115462,
       46.067759
      ],
      [
       11.115815,
       46.06767
      ],
      [
       11.115848,
       46.067661
      ],
      [
       11.115815,
       46.067563
      ],
      [
       11.115462,
       46.066405
      ]
     ]
    ]
   },
   "properties": {
    "name": "P5 - Parcheggio Duomo",
    "osm_id": 1453397784,
    "kind": "underground",
    "fee": "yes",
    "capacity": 201
   }
  },
  {
   "type": "Feature",
   "geometry": {
    "type": "Polygon",
    "coordinates": [
     [
      [
       11.1168,
       46.06362
      ],
      [
       11.116673,
       46.06361
      ],
      [
       11.116705,
       46.063419
      ],
      [
       11.116987,
       46.063442
      ],
      [
       11.116976,
       46.063508
      ],
      [
       11.117032,
       46.063513
      ],
      [
       11.11695,
       46.064008
      ],
      [
       11.116891,
       46.064003
      ],
      [
       11.116865,
       46.064158
      ],
      [
       11.116713,
       46.064146
      ],
      [
       11.1168,
       46.06362
      ]
     ]
    ]
   },
   "properties": {
    "name": "P6 - CTE via Bomporto",
    "osm_id": 268460170,
    "kind": "surface",
    "fee": "yes",
    "capacity": null
   }
  },
  {
   "type": "Feature",
   "geometry": {
    "type": "Polygon",
    "coordinates": [
     [
      [
       11.116354,
       46.06528
      ],
      [
       11.116403,
       46.065041
      ],
      [
       11.116423,
       46.06503
      ],
      [
       11.116445,
       46.065029
      ],
      [
       11.116601,
       46.065035
      ],
      [
       11.116605,
       46.06501
      ],
      [
       11.116637,
       46.064962
      ],
      [
       11.116669,
       46.064946
      ],
      [
       11.116693,
       46.064944
      ],
      [
       11.116723,
       46.064947
      ],
      [
       11.116756,
       46.064788
      ],
      [
       11.116759,
       46.064723
      ],
      [
       11.11677,
       46.064656
      ],
      [
       11.116868,
       46.064667
      ],
      [
       11.116869,
       46.064659
      ],
      [
       11.116874,
       46.064635
      ],
      [
       11.116865,
       46.064634
      ],
      [
       11.116874,
       46.064576
      ],
      [
       11.116883,
       46.064577
      ],
      [
       11.116897,
       46.064479
      ],
      [
       11.116888,
       46.064479
      ],
      [
       11.116747,
       46.064467
      ],
      [
       11.116651,
       46.06446
      ],
      [
       11.116596,
       46.064495
      ],
      [
       11.116399,
       46.064521
      ],
      [
       11.1163,
       46.064552
      ],
      [
       11.116183,
       46.06524
      ],
      [
       11.115879,
       46.065217
      ],
      [
       11.115997,
       46.064442
      ],
      [
       11.116013,
       46.064333
      ],
      [
       11.115851,
       46.064324
      ],
      [
       11.115824,
       46.064536
      ],
      [
       11.11576,
       46.065114
      ],
      [
       11.115753,
       46.065406
      ],
      [
       11.115764,
       46.065679
      ],
      [
       11.115967,
       46.0657
      ],
      [
       11.116015,
       46.065485
      ],
      [
       11.116306,
       46.065512
      ],
      [
       11.116354,
       46.06528
      ]
     ]
    ]
   },
   "properties": {
    "name": "P6 - Cittadella dello studente",
    "osm_id": 268460172,
    "kind": "surface",
    "fee": "yes",
    "capacity": 250
   }
  },
  {
   "type": "Feature",
   "geometry": {
    "type": "Polygon",
    "coordinates": [
     [
      [
       11.114043,
       46.065476
      ],
      [
       11.114782,
       46.065535
      ],
      [
       11.115317,
       46.065578
      ],
      [
       11.115407,
       46.065586
      ],
      [
       11.115476,
       46.065591
      ],
      [
       11.115534,
       46.06626
      ],
      [
       11.115316,
       46.066242
      ],
      [
       11.115314,
       46.06625
      ],
      [
       11.115312,
       46.066256
      ],
      [
       11.114835,
       46.066207
      ],
      [
       11.114813,
       46.066204
      ],
      [
       11.114818,
       46.066189
      ],
      [
       11.114532,
       46.066163
      ],
      [
       11.114479,
       46.066148
      ],
      [
       11.11443,
       46.066119
      ],
      [
       11.114391,
       46.066074
      ],
      [
       11.114363,
       46.066027
      ],
      [
       11.114349,
       46.066029
      ],
      [
       11.114329,
       46.065992
      ],
      [
       11.114043,
       46.065476
      ]
     ]
    ]
   },
   "properties": {
    "name": "P7 - Piazzale Sanseverino",
    "osm_id": 23976836,
    "kind": "surface",
    "fee": "no",
    "capacity": 345
   }
  },
  {
   "type": "Feature",
   "geometry": {
    "type": "Polygon",
    "coordinates": [
     [
      [
       11.11296,
       46.057518
      ],
      [
       11.114422,
       46.0576
      ],
      [
       11.114479,
       46.057184
      ],
      [
       11.113955,
       46.057125
      ],
      [
       11.113872,
       46.057147
      ],
      [
       11.113788,
       46.057137
      ],
      [
       11.113782,
       46.057156
      ],
      [
       11.113706,
       46.057146
      ],
      [
       11.113673,
       46.05712
      ],
      [
       11.113558,
       46.057107
      ],
      [
       11.113543,
       46.057105
      ],
      [
       11.113504,
       46.057071
      ],
      [
       11.113337,
       46.057051
      ],
      [
       11.113025,
       46.057012
      ],
      [
       11.113024,
       46.057024
      ],
      [
       11.112982,
       46.057344
      ],
      [
       11.11296,
       46.057518
      ]
     ]
    ]
   },
   "properties": {
    "name": "P8 - Parcheggio Monte Baldo",
    "osm_id": 24441737,
    "kind": "surface",
    "fee": "yes",
    "capacity": 250
   }
  },
  {
   "type": "Feature",
   "geometry": {
    "type": "Polygon",
    "coordinates": [
     [
      [
       11.108464,
       46.076062
      ],
      [
       11.108491,
       46.076123
      ],
      [
       11.108515,
       46.076123
      ],
      [
       11.108553,
       46.076123
      ],
      [
       11.108583,
       46.076124
      ],
      [
       11.108613,
       46.076124
      ],
      [
       11.108646,
       46.076125
      ],
      [
       11.108679,
       46.076125
      ],
      [
       11.108709,
       46.076126
      ],
      [
       11.108746,
       46.076126
      ],
      [
       11.108779,
       46.076126
      ],
      [
       11.108811,
       46.076127
      ],
      [
       11.108842,
       46.076127
      ],
      [
       11.108853,
       46.076127
      ],
      [
       11.108871,
       46.076128
      ],
      [
       11.108921,
       46.07613
      ],
      [
       11.108954,
       46.07613
      ],
      [
       11.108985,
       46.076132
      ],
      [
       11.109018,
       46.076132
      ],
      [
       11.109049,
       46.076133
      ],
      [
       11.109082,
       46.076134
      ],
      [
       11.109115,
       46.076135
      ],
      [
       11.109147,
       46.076136
      ],
      [
       11.109179,
       46.076137
      ],
      [
       11.109212,
       46.076138
      ],
      [
       11.10924,
       46.076139
      ],
      [
       11.109276,
       46.07614
      ],
      [
       11.109289,
       46.076141
      ],
      [
       11.109263,
       46.07664
      ],
      [
       11.109461,
       46.076646
      ],
      [
       11.109479,
       46.076646
      ],
      [
       11.109532,
       46.076648
      ],
      [
       11.109605,
       46.076651
      ],
      [
       11.109647,
       46.076651
      ],
      [
       11.109708,
       46.076635
      ],
      [
       11.11005,
       46.07656
      ],
      [
       11.110065,
       46.076558
      ],
      [
       11.110236,
       46.076523
      ],
      [
       11.110255,
       46.076519
      ],
      [
       11.110259,
       46.076468
      ],
      [
       11.11026,
       46.076439
      ],
      [
       11.110268,
       46.076318
      ],
      [
       11.110269,
       46.076296
      ],
      [
       11.110276,
       46.076176
      ],
      [
       11.110278,
       46.076149
      ],
      [
       11.110314,
       46.07615
      ],
      [
       11.110355,
       46.076151
      ],
      [
       11.110389,
       46.076152
      ],
      [
       11.110423,
       46.076153
      ],
      [
       11.110455,
       46.076154
      ],
      [
       11.110489,
       46.076155
      ],
      [
       11.110526,
       46.076156
      ],
      [
       11.110561,
       46.076157
      ],
      [
       11.110596,
       46.076158
      ],
      [
       11.110624,
       46.076159
      ],
      [
       11.110656,
       46.076161
      ],
      [
       11.110705,
       46.076163
      ],
      [
       11.110724,
       46.076179
      ],
      [
       11.110758,
       46.07621
      ],
      [
       11.110755,
       46.076233
      ],
      [
       11.110753,
       46.076253
      ],
      [
       11.11075,
       46.076272
      ],
      [
       11.110748,
       46.076293
      ],
      [
       11.110745,
       46.076315
      ],
      [
       11.110743,
       46.076338
      ],
      [
       11.11074,
       46.076359
      ],
      [
       11.110738,
       46.076378
      ],
      [
       11.110807,
       46.07638
      ],
      [
       11.110801,
       46.076425
      ],
      [
       11.110778,
       46.076582
      ],
      [
       11.110779,
       46.076633
      ],
      [
       11.110801,
       46.076673
      ],
      [
       11.110829,
       46.076699
      ],
      [
       11.11082,
       46.076711
      ],
      [
       11.110765,
       46.076763
      ],
      [
       11.110822,
       46.076766
      ],
      [
       11.110864,
       46.07677
      ],
      [
       11.110879,
       46.076771
      ],
      [
       11.111122,
       46.076735
      ],
      [
       11.111151,
       46.076738
      ],
      [
       11.111215,
       46.076695
      ],
      [
       11.111253,
       46.076664
      ],
      [
       11.111312,
       46.076606
      ],
      [
       11.111329,
       46.076576
      ],
      [
       11.111328,
       46.076545
      ],
      [
       11.111321,
       46.076503
      ],
      [
       11.111217,
       46.076386
      ],
      [
       11.111275,
       46.076359
      ],
      [
       11.111064,
       46.076124
      ],
      [
       11.111026,
       46.076101
      ],
      [
       11.110979,
       46.076082
      ],
      [
       11.110831,
       46.076069
      ],
      [
       11.110679,
       46.07606
      ],
      [
       11.110675,
       46.076047
      ],
      [
       11.110677,
       46.076025
      ],
      [
       11.110678,
       46.076002
      ],
      [
       11.110679,
       46.075981
      ],
      [
       11.11068,
       46.075958
      ],
      [
       11.110681,
       46.075946
      ],
      [
       11.110658,
       46.075935
      ],
      [
       11.110464,
       46.075832
      ],
      [
       11.110563,
       46.075778
      ],
      [
       11.110465,
       46.075735
      ],
      [
       11.10986,
       46.07538
      ],
      [
       11.109597,
       46.075265
      ],
      [
       11.109354,
       46.075159
      ],
      [
       11.108989,
       46.075041
      ],
      [
       11.108982,
       46.075142
      ],
      [
       11.108981,
       46.075164
      ],
      [
       11.108979,
       46.075187
      ],
      [
       11.108978,
       46.075209
      ],
      [
       11.108977,
       46.075232
      ],
      [
       11.108975,
       46.075254
      ],
      [
       11.108974,
       46.075277
      ],
      [
       11.108972,
       46.075299
      ],
      [
       11.108971,
       46.075321
      ],
      [
       11.10897,
       46.075344
      ],
      [
       11.108968,
       46.075366
      ],
      [
       11.108967,
       46.075389
      ],
      [
       11.108966,
       46.075411
      ],
      [
       11.108964,
       46.075434
      ],
      [
       11.108963,
       46.075456
      ],
      [
       11.108961,
       46.075478
      ],
      [
       11.10896,
       46.075501
      ],
      [
       11.108954,
       46.075508
      ],
      [
       11.108564,
       46.075514
      ],
      [
       11.108563,
       46.075592
      ],
      [
       11.108563,
       46.075601
      ],
      [
       11.10844,
       46.075601
      ],
      [
       11.108464,
       46.076054
      ],
      [
       11.108464,
       46.076062
      ]
     ]
    ]
   },
   "properties": {
    "name": "P9 - Parcheggio Zuffo",
    "osm_id": 24915127,
    "kind": "surface",
    "fee": "no",
    "capacity": 1096
   }
  },
  {
   "type": "Feature",
   "geometry": {
    "type": "Polygon",
    "coordinates": [
     [
      [
       11.130137,
       46.055423
      ],
      [
       11.130172,
       46.055273
      ],
      [
       11.129993,
       46.055257
      ],
      [
       11.129838,
       46.055065
      ],
      [
       11.129507,
       46.05519
      ],
      [
       11.129488,
       46.055269
      ],
      [
       11.12942,
       46.055344
      ],
      [
       11.130137,
       46.055423
      ]
     ]
    ]
   },
   "properties": {
    "name": "Parcheggio Antonio Fogazzaro",
    "osm_id": 24436842,
    "kind": "surface",
    "fee": null,
    "capacity": null
   }
  },
  {
   "type": "Feature",
   "geometry": {
    "type": "Polygon",
    "coordinates": [
     [
      [
       11.121922,
       46.040393
      ],
      [
       11.12208,
       46.040389
      ],
      [
       11.122103,
       46.040388
      ],
      [
       11.122128,
       46.040387
      ],
      [
       11.12265,
       46.040373
      ],
      [
       11.12269,
       46.040372
      ],
      [
       11.122735,
       46.040371
      ],
      [
       11.122767,
       46.04037
      ],
      [
       11.123827,
       46.040341
      ],
      [
       11.123876,
       46.04034
      ],
      [
       11.123986,
       46.039893
      ],
      [
       11.12401,
       46.039796
      ],
      [
       11.122537,
       46.039834
      ],
      [
       11.121922,
       46.040393
      ]
     ]
    ]
   },
   "properties": {
    "name": "Parcheggio C",
    "osm_id": 24875029,
    "kind": "surface",
    "fee": "no",
    "capacity": 324
   }
  },
  {
   "type": "Feature",
   "geometry": {
    "type": "Polygon",
    "coordinates": [
     [
      [
       11.111947,
       46.040439
      ],
      [
       11.111975,
       46.040589
      ],
      [
       11.112138,
       46.040628
      ],
      [
       11.112107,
       46.040689
      ],
      [
       11.111993,
       46.040656
      ],
      [
       11.111759,
       46.040887
      ],
      [
       11.11176,
       46.040923
      ],
      [
       11.112093,
       46.040892
      ],
      [
       11.112321,
       46.040515
      ],
      [
       11.112318,
       46.040503
      ],
      [
       11.112309,
       46.040495
      ],
      [
       11.112289,
       46.040487
      ],
      [
       11.112029,
       46.040424
      ],
      [
       11.111947,
       46.040439
      ]
     ]
    ]
   },
   "properties": {
    "name": "Parcheggio Centro Commerciale Ravina",
    "osm_id": 307364531,
    "kind": "surface",
    "fee": "no",
    "capacity": null
   }
  },
  {
   "type": "Feature",
   "geometry": {
    "type": "Polygon",
    "coordinates": [
     [
      [
       11.119331,
       46.042752
      ],
      [
       11.120183,
       46.043221
      ],
      [
       11.120124,
       46.042027
      ],
      [
       11.119331,
       46.042752
      ]
     ]
    ]
   },
   "properties": {
    "name": "Parcheggio D",
    "osm_id": 118389119,
    "kind": "surface",
    "fee": "no",
    "capacity": null
   }
  },
  {
   "type": "Feature",
   "geometry": {
    "type": "Polygon",
    "coordinates": [
     [
      [
       11.112253,
       46.070008
      ],
      [
       11.112269,
       46.069979
      ],
      [
       11.113549,
       46.070312
      ],
      [
       11.113535,
       46.070339
      ],
      [
       11.112253,
       46.070008
      ]
     ]
    ]
   },
   "properties": {
    "name": "Parcheggio Lato Strada",
    "osm_id": 914453331,
    "kind": "street_side",
    "fee": "yes",
    "capacity": null
   }
  },
  {
   "type": "Feature",
   "geometry": {
    "type": "Polygon",
    "coordinates": [
     [
      [
       11.140011,
       46.065644
      ],
      [
       11.140071,
       46.065652
      ],
      [
       11.140224,
       46.065655
      ],
      [
       11.140211,
       46.065826
      ],
      [
       11.140399,
       46.06583
      ],
      [
       11.140414,
       46.065683
      ],
      [
       11.140499,
       46.064894
      ],
      [
       11.140172,
       46.064878
      ],
      [
       11.140073,
       46.064877
      ],
      [
       11.140055,
       46.065097
      ],
      [
       11.140037,
       46.065321
      ],
      [
       11.140011,
       46.065644
      ]
     ]
    ]
   },
   "properties": {
    "name": "Parcheggio Studenti",
    "osm_id": 24862337,
    "kind": "multi-storey",
    "fee": "no",
    "capacity": null
   }
  },
  {
   "type": "Feature",
   "geometry": {
    "type": "Polygon",
    "coordinates": [
     [
      [
       11.139206,
       46.044345
      ],
      [
       11.139177,
       46.043984
      ],
      [
       11.139241,
       46.043982
      ],
      [
       11.139285,
       46.043954
      ],
      [
       11.139317,
       46.043934
      ],
      [
       11.139386,
       46.04393
      ],
      [
       11.139416,
       46.044335
      ],
      [
       11.139418,
       46.044357
      ],
      [
       11.139422,
       46.044409
      ],
      [
       11.139477,
       46.045125
      ],
      [
       11.139455,
       46.045139
      ],
      [
       11.139423,
       46.045139
      ],
      [
       11.13933,
       46.045131
      ],
      [
       11.139269,
       46.045133
      ],
      [
       11.139251,
       46.045133
      ],
      [
       11.139224,
       46.045134
      ],
      [
       11.139203,
       46.044864
      ],
      [
       11.139201,
       46.044839
      ],
      [
       11.139195,
       46.044758
      ],
      [
       11.139194,
       46.044751
      ],
      [
       11.139173,
       46.04448
      ],
      [
       11.139201,
       46.044479
      ],
      [
       11.139217,
       46.044478
      ],
      [
       11.139216,
       46.044457
      ],
      [
       11.139281,
       46.044453
      ],
      [
       11.139281,
       46.044448
      ],
      [
       11.139271,
       46.044342
      ],
      [
       11.139206,
       46.044345
      ]
     ]
    ]
   },
   "properties": {
    "name": "Parcheggio Villazzano Stazione FS",
    "osm_id": 36806471,
    "kind": "surface",
    "fee": "no",
    "capacity": 102
   }
  },
  {
   "type": "Feature",
   "geometry": {
    "type": "Polygon",
    "coordinates": [
     [
      [
       11.124244,
       46.040105
      ],
      [
       11.125126,
       46.040108
      ],
      [
       11.125228,
       46.040108
      ],
      [
       11.125295,
       46.040698
      ],
      [
       11.125025,
       46.040712
      ],
      [
       11.124988,
       46.040703
      ],
      [
       11.12496,
       46.040686
      ],
      [
       11.124691,
       46.040584
      ],
      [
       11.124627,
       46.040587
      ],
      [
       11.1246,
       46.040328
      ],
      [
       11.12452,
       46.040332
      ],
      [
       11.124522,
       46.040353
      ],
      [
       11.124492,
       46.040354
      ],
      [
       11.124489,
       46.040333
      ],
      [
       11.12447,
       46.040334
      ],
      [
       11.124457,
       46.040332
      ],
      [
       11.124445,
       46.040325
      ],
      [
       11.12444,
       46.040316
      ],
      [
       11.124437,
       46.040292
      ],
      [
       11.124374,
       46.040295
      ],
      [
       11.124368,
       46.040228
      ],
      [
       11.124288,
       46.040232
      ],
      [
       11.124269,
       46.040232
      ],
      [
       11.124211,
       46.040238
      ],
      [
       11.124195,
       46.040134
      ],
      [
       11.124247,
       46.04013
      ],
      [
       11.124244,
       46.040105
      ]
     ]
    ]
   },
   "properties": {
    "name": "Parcheggio via Bartali",
    "osm_id": 984089106,
    "kind": "surface",
    "fee": "no",
    "capacity": 137
   }
  },
  {
   "type": "Feature",
   "geometry": {
    "type": "Polygon",
    "coordinates": [
     [
      [
       11.123997,
       46.071719
      ],
      [
       11.124138,
       46.071879
      ],
      [
       11.124377,
       46.071778
      ],
      [
       11.124236,
       46.071618
      ],
      [
       11.123997,
       46.071719
      ]
     ]
    ]
   },
   "properties": {
    "name": "Piazza Silvio Pellico",
    "osm_id": 75356287,
    "kind": "surface",
    "fee": "yes",
    "capacity": null
   }
  },
  {
   "type": "Feature",
   "geometry": {
    "type": "Polygon",
    "coordinates": [
     [
      [
       11.133479,
       46.040486
      ],
      [
       11.133482,
       46.040371
      ],
      [
       11.133488,
       46.040149
      ],
      [
       11.133489,
       46.040121
      ],
      [
       11.133244,
       46.040118
      ],
      [
       11.133248,
       46.039956
      ],
      [
       11.133709,
       46.039962
      ],
      [
       11.133688,
       46.040773
      ],
      [
       11.133575,
       46.040771
      ],
      [
       11.133472,
       46.04077
      ],
      [
       11.133479,
       46.040486
      ]
     ]
    ]
   },
   "properties": {
    "name": "Piazzale Europa",
    "osm_id": 37102134,
    "kind": "surface",
    "fee": "no",
    "capacity": null
   }
  },
  {
   "type": "Feature",
   "geometry": {
    "type": "Polygon",
    "coordinates": [
     [
      [
       11.123847,
       46.07536
      ],
      [
       11.123754,
       46.075213
      ],
      [
       11.123776,
       46.075151
      ],
      [
       11.123788,
       46.075133
      ],
      [
       11.123805,
       46.075111
      ],
      [
       11.123833,
       46.075073
      ],
      [
       11.123844,
       46.075085
      ],
      [
       11.123869,
       46.075083
      ],
      [
       11.123884,
       46.075073
      ],
      [
       11.123913,
       46.075038
      ],
      [
       11.124023,
       46.074888
      ],
      [
       11.12411,
       46.074763
      ],
      [
       11.124166,
       46.074666
      ],
      [
       11.12426,
       46.074444
      ],
      [
       11.124318,
       46.07445
      ],
      [
       11.124413,
       46.074468
      ],
      [
       11.124476,
       46.074477
      ],
      [
       11.124379,
       46.074737
      ],
      [
       11.124332,
       46.074856
      ],
      [
       11.12418,
       46.075076
      ],
      [
       11.124079,
       46.075044
      ],
      [
       11.123954,
       46.075184
      ],
      [
       11.124,
       46.075214
      ],
      [
       11.123925,
       46.07533
      ],
      [
       11.123847,
       46.07536
      ]
     ]
    ]
   },
   "properties": {
    "name": "Piazzale Francesco Petrarca",
    "osm_id": 37285164,
    "kind": "surface",
    "fee": "yes",
    "capacity": null
   }
  },
  {
   "type": "Feature",
   "geometry": {
    "type": "Polygon",
    "coordinates": [
     [
      [
       11.112449,
       46.107761
      ],
      [
       11.112262,
       46.10771
      ],
      [
       11.111942,
       46.107639
      ],
      [
       11.111985,
       46.107558
      ],
      [
       11.112093,
       46.107584
      ],
      [
       11.112126,
       46.107526
      ],
      [
       11.112521,
       46.10763
      ],
      [
       11.112699,
       46.10746
      ],
      [
       11.112699,
       46.107434
      ],
      [
       11.112689,
       46.107405
      ],
      [
       11.112689,
       46.107366
      ],
      [
       11.112806,
       46.107162
      ],
      [
       11.113157,
       46.107243
      ],
      [
       11.113213,
       46.107254
      ],
      [
       11.113234,
       46.107267
      ],
      [
       11.113239,
       46.107286
      ],
      [
       11.113231,
       46.107306
      ],
      [
       11.113209,
       46.107324
      ],
      [
       11.11323,
       46.107333
      ],
      [
       11.112939,
       46.107542
      ],
      [
       11.112906,
       46.107521
      ],
      [
       11.112887,
       46.107522
      ],
      [
       11.112872,
       46.107527
      ],
      [
       11.112863,
       46.10754
      ],
      [
       11.112867,
       46.107552
      ],
      [
       11.112896,
       46.107573
      ],
      [
       11.112713,
       46.107709
      ],
      [
       11.112663,
       46.107675
      ],
      [
       11.112633,
       46.107701
      ],
      [
       11.112633,
       46.107726
      ],
      [
       11.112646,
       46.107743
      ],
      [
       11.112664,
       46.107751
      ],
      [
       11.112632,
       46.107782
      ],
      [
       11.112471,
       46.107724
      ],
      [
       11.112449,
       46.107761
      ]
     ]
    ]
   },
   "properties": {
    "name": "Piazzale Lionello Groff",
    "osm_id": 101811605,
    "kind": "surface",
    "fee": "no",
    "capacity": 70
   }
  },
  {
   "type": "Feature",
   "geometry": {
    "type": "Polygon",
    "coordinates": [
     [
      [
       11.142441,
       46.108394
      ],
      [
       11.142563,
       46.108392
      ],
      [
       11.142631,
       46.108391
      ],
      [
       11.14275,
       46.108389
      ],
      [
       11.143346,
       46.108378
      ],
      [
       11.143349,
       46.10834
      ],
      [
       11.14304,
       46.108252
      ],
      [
       11.142806,
       46.108211
      ],
      [
       11.142575,
       46.108209
      ],
      [
       11.14252,
       46.10821
      ],
      [
       11.142499,
       46.10821
      ],
      [
       11.142549,
       46.108269
      ],
      [
       11.142533,
       46.108299
      ],
      [
       11.142441,
       46.108394
      ]
     ]
    ]
   },
   "properties": {
    "name": "Piazzale Livio Oberosler",
    "osm_id": 378576723,
    "kind": "surface",
    "fee": null,
    "capacity": null
   }
  },
  {
   "type": "Feature",
   "geometry": {
    "type": "Polygon",
    "coordinates": [
     [
      [
       11.111035,
       46.106443
      ],
      [
       11.110813,
       46.106409
      ],
      [
       11.110627,
       46.10635
      ],
      [
       11.11051,
       46.106278
      ],
      [
       11.110453,
       46.10621
      ],
      [
       11.11041,
       46.106136
      ],
      [
       11.110384,
       46.106044
      ],
      [
       11.110395,
       46.105975
      ],
      [
       11.111111,
       46.106093
      ],
      [
       11.111035,
       46.106443
      ]
     ]
    ]
   },
   "properties": {
    "name": "Piazzale Neufahrn",
    "osm_id": 365685692,
    "kind": "surface",
    "fee": "no",
    "capacity": null
   }
  },
  {
   "type": "Feature",
   "geometry": {
    "type": "Polygon",
    "coordinates": [
     [
      [
       11.1344,
       46.054818
      ],
      [
       11.134488,
       46.05492
      ],
      [
       11.134657,
       46.054981
      ],
      [
       11.134785,
       46.055041
      ],
      [
       11.134908,
       46.055117
      ],
      [
       11.134995,
       46.055188
      ],
      [
       11.135089,
       46.055275
      ],
      [
       11.13518,
       46.055369
      ],
      [
       11.135259,
       46.055513
      ],
      [
       11.13529,
       46.055601
      ],
      [
       11.13536,
       46.055584
      ],
      [
       11.135401,
       46.055495
      ],
      [
       11.13548,
       46.05514
      ],
      [
       11.135545,
       46.054987
      ],
      [
       11.135672,
       46.054904
      ],
      [
       11.135813,
       46.054848
      ],
      [
       11.135285,
       46.054492
      ],
      [
       11.135156,
       46.054558
      ],
      [
       11.135103,
       46.054585
      ],
      [
       11.135037,
       46.054619
      ],
      [
       11.134945,
       46.054651
      ],
      [
       11.134869,
       46.054682
      ],
      [
       11.134798,
       46.054712
      ],
      [
       11.134643,
       46.054757
      ],
      [
       11.134543,
       46.054783
      ],
      [
       11.1344,
       46.054818
      ]
     ]
    ]
   },
   "properties": {
    "name": "Santa Chiara",
    "osm_id": 24914034,
    "kind": "surface",
    "fee": "yes",
    "capacity": 188
   }
  },
  {
   "type": "Feature",
   "geometry": {
    "type": "Polygon",
    "coordinates": [
     [
      [
       11.120935,
       46.074323
      ],
      [
       11.120987,
       46.074401
      ],
      [
       11.121453,
       46.075099
      ],
      [
       11.121391,
       46.075127
      ],
      [
       11.121512,
       46.075417
      ],
      [
       11.12156,
       46.075565
      ],
      [
       11.121783,
       46.07556
      ],
      [
       11.121779,
       46.075071
      ],
      [
       11.121376,
       46.074408
      ],
      [
       11.121487,
       46.074374
      ],
      [
       11.121459,
       46.07433
      ],
      [
       11.121337,
       46.074365
      ],
      [
       11.121012,
       46.074301
      ],
      [
       11.120935,
       46.074323
      ]
     ]
    ]
   },
   "properties": {
    "name": "Via Dogana",
    "osm_id": 24875467,
    "kind": "surface",
    "fee": "yes",
    "capacity": 152
   }
  },
  {
   "type": "Feature",
   "geometry": {
    "type": "Polygon",
    "coordinates": [
     [
      [
       11.121074,
       46.073353
      ],
      [
       11.120868,
       46.073052
      ],
      [
       11.121146,
       46.072961
      ],
      [
       11.121447,
       46.072861
      ],
      [
       11.121507,
       46.072841
      ],
      [
       11.121543,
       46.072829
      ],
      [
       11.121864,
       46.072724
      ],
      [
       11.121894,
       46.072714
      ],
      [
       11.122098,
       46.073012
      ],
      [
       11.121588,
       46.073182
      ],
      [
       11.121564,
       46.073189
      ],
      [
       11.121525,
       46.073203
      ],
      [
       11.121074,
       46.073353
      ]
     ]
    ]
   },
   "properties": {
    "name": "Via Romagnosi",
    "osm_id": 75031191,
    "kind": "surface",
    "fee": "yes",
    "capacity": null
   }
  }
 ]
}